NORAD_CAT_ID,OBJECT_NAME,OBJECT_TYPE,EPOCH,MEAN_MOTION,ECCENTRICITY,INCLINATION,RA_OF_ASC_NODE,ARG_OF_PERICENTER,MEAN_ANOMALY,BSTAR,MEAN_MOTION_DOT,MEAN_MOTION_DDOT,TLE_LINE0,TLE_LINE1,TLE_LINE2,SEMIMAJOR_AXIS,PERIOD,APOGEE,PERIGEE,DECAYED
52618.0,STARLINK-3983,PAYLOAD,2022-08-15 22:00:00,15.08829653,0.0001145,53.2174,353.011,74.8598,198.8088,-0.00044388,-7.343e-05,0.0,0 STARLINK-3983,1 52618U 22052W   22227.91667824 -.00007343  00000-0 -44388-3 0  9990,2 52618  53.2174 353.0110 0001145  74.8598 198.8088 15.08829653  1304,6917.9119999999975,95.438,540.569,538.985,0.0
52618.0,STARLINK-3983,PAYLOAD,2022-08-16 12:00:00,15.08848183,0.0001171,53.2176,350.3921,81.8844,122.0464,-0.0012505,-0.00020139,0.0,0 STARLINK-3983,1 52618U 22052W   22228.50001157 -.00020139  00000-0 -12505-2 0  9990,2 52618  53.2176 350.3921 0001171  81.8844 122.0464 15.08848183 14925,6917.855,95.437,540.53,538.91,0.0
52618.0,STARLINK-3983,PAYLOAD,2022-08-16 14:00:01,15.08841873,0.0001190999999999,53.2174,350.0184,77.32600000000002,219.5059,-0.00068365,-0.00011152,0.0,0 STARLINK-3983,1 52618U 22052W   22228.58334491 -.00011152  00000-0 -68365-3 0  9999,2 52618  53.2174 350.0184 0001191  77.3260 219.5059 15.08841873  1304,6917.875,95.437,540.564,538.9159999999998,0.0
52618.0,STARLINK-3983,PAYLOAD,2022-08-16 22:00:00,15.08863053,0.0001161999999999,53.2172,348.522,72.4615,235.9585,-0.0019076,-0.00030538,0.0,0 STARLINK-3983,1 52618U 22052W   22228.91667824 -.00030538  00000-0 -19076-2 0  9998,2 52618  53.2172 348.5220 0001162  72.4615 235.9585 15.08863053  1303,6917.81,95.436,540.479,538.871,0.0
52618.0,STARLINK-3983,PAYLOAD,2022-08-17 04:00:00,15.08828417,0.0001167,53.2173,347.3984,81.3787,145.7561,0.00023261,3.415e-05,0.0,0 STARLINK-3983,1 52618U 22052W   22229.16667824  .00003415  00000-0  23261-3 0  9990,2 52618  53.2173 347.3984 0001167  81.3787 145.7561 15.08828417 15023,6917.916,95.438,540.5880000000002,538.9730000000002,0.0
52618.0,STARLINK-3983,PAYLOAD,2022-08-17 16:00:00,15.08825409,0.0001354,53.2175,345.1557,73.3035,351.1944,0.00106,0.00016615,0.0,0 STARLINK-3983,1 52618U 22052W   22229.66667824  .00016615  00000-0  10600-2 0  9993,2 52618  53.2175 345.1557 0001354  73.3035 351.1944 15.08825409  1304,6917.925,95.438,540.727,538.8530000000002,0.0
52618.0,STARLINK-3983,PAYLOAD,2022-08-18 06:00:02,15.08834976,0.000127,53.2175,342.5349,81.0618,273.7957,0.0036152,0.00057711,0.0,0 STARLINK-3983,1 52618U 22052W   22230.25002315  .00057711  00000-0  36152-2 0  9990,2 52618  53.2175 342.5349 0001270  81.0618 273.7957 15.08834976 15198,6917.896,95.438,540.639,538.882,0.0
52618.0,STARLINK-3983,PAYLOAD,2022-08-18 14:00:01,15.08883514,0.0001389,53.2176,341.0402,71.9572,294.4486,-0.0032198,-0.00051227,0.0,0 STARLINK-3983,1 52618U 22052W   22230.58334491 -.00051227  00000-0 -32198-2 0  9993,2 52618  53.2176 341.0402 0001389  71.9572 294.4486 15.08883514  1308,6917.746999999999,95.435,540.573,538.6519999999998,0.0
52618.0,STARLINK-3983,PAYLOAD,2022-08-18 20:00:01,15.08859941,0.0001358,53.2175,339.9181,68.4656,216.6625,-0.0014244,-0.00022898,0.0,0 STARLINK-3983,1 52618U 22052W   22230.83334491 -.00022898  00000-0 -14244-2 0  9995,2 52618  53.2175 339.9181 0001358  68.4656 216.6625 15.08859941 15276,6917.819,95.436,540.624,538.745,0.0
52618.0,STARLINK-3983,PAYLOAD,2022-08-18 22:00:00,15.0887604,0.0001346,53.2176,339.5434,69.6441,308.3825,-0.0042172,-0.00066847,0.0,0 STARLINK-3983,1 52618U 22052W   22230.91667824 -.00066847  00000-0 -42172-2 0  9996,2 52618  53.2176 339.5434 0001346  69.6441 308.3825 15.08876040  1305,6917.77,95.435,540.566,538.7040000000002,0.0
52618.0,STARLINK-3983,PAYLOAD,2022-08-19 14:00:01,15.08821128,0.0001463,53.2179,336.5511,71.5829,329.6447,-8.6507e-05,-1.664e-05,0.0,0 STARLINK-3983,1 52618U 22052W   22231.58334491 -.00001664  00000-0 -86507-4 0  9999,2 52618  53.2179 336.5511 0001463  71.5829 329.6447 15.08821128  1306,6917.938,95.439,540.815,538.7909999999998,0.0
52618.0,STARLINK-3983,PAYLOAD,2022-08-19 22:00:00,15.08852558,0.0001431999999999,53.2179,335.0542,71.3177,341.4703,-0.0039128,-0.00062045,0.0,0 STARLINK-3983,1 52618U 22052W   22231.91667824 -.00062045  00000-0 -39128-2 0  9990,2 52618  53.2179 335.0542 0001432  71.3177 341.4703 15.08852558  1302,6917.842,95.437,540.698,538.716,0.0
52618.0,STARLINK-3983,PAYLOAD,2022-08-20 04:00:00,15.08789113,0.0001411,53.218,333.9308,80.3333,251.1563,0.0022233,0.00035224,0.0,0 STARLINK-3983,1 52618U 22052W   22232.16667824  .00035224  00000-0  22233-2 0  9994,2 52618  53.2180 333.9308 0001411  80.3333 251.1563 15.08789113 15483,6918.036,95.441,540.877,538.925,0.0
52618.0,STARLINK-3983,PAYLOAD,2022-08-20 14:00:01,15.08814284,0.0001536,53.2181,332.0622,72.9922,2.94,-6.4355e-05,-1.311e-05,0.0,0 STARLINK-3983,1 52618U 22052W   22232.58334491 -.00001311  00000-0 -64355-4 0  9996,2 52618  53.2181 332.0622 0001536  72.9922   2.9400 15.08814284  1308,6917.959,95.439,540.887,538.761,0.0
52618.0,STARLINK-3983,PAYLOAD,2022-08-20 20:00:01,15.08823706,0.0001458,53.2178,330.9396,70.6795,283.9829,-0.00015216,-2.708e-05,0.0,0 STARLINK-3983,1 52618U 22052W   22232.83335648 -.00002708  00000-0 -15216-3 0  9991,2 52618  53.2178 330.9396 0001458  70.6795 283.9829 15.08823706 15585,6917.93,95.439,540.804,538.7869999999998,0.0
52618.0,STARLINK-3983,PAYLOAD,2022-08-20 22:00:00,15.08834798,0.000145,53.2179,330.5651,73.7752,13.7146,-0.0016187999999999,-0.00025955,0.0,0 STARLINK-3983,1 52618U 22052W   22232.91667824 -.00025955  00000-0 -16188-2 0  9991,2 52618  53.2179 330.5651 0001450  73.7752  13.7146 15.08834798  1304,6917.896,95.438,540.764,538.758,0.0
52618.0,STARLINK-3983,PAYLOAD,2022-08-21 14:00:01,15.08827373,0.000147,53.218,327.5734,73.661,36.9822,2.2829e-05,7.5e-07,0.0,0 STARLINK-3983,1 52618U 22052W   22233.58334491  .00000075  00000-0  22829-4 0  9991,2 52618  53.2180 327.5734 0001470  73.6610  36.9822 15.08827373  1307,6917.919,95.438,540.8009999999998,538.7669999999998,0.0
52618.0,STARLINK-3983,PAYLOAD,2022-08-21 22:00:00,15.08850248,0.000139,53.2177,326.0762,75.2717,46.9498,-0.0017268,-0.00027672,0.0,0 STARLINK-3983,1 52618U 22052W   22233.91667824 -.00027672  00000-0 -17268-2 0  9990,2 52618  53.2177 326.0762 0001390  75.2717  46.9498 15.08850248  1302,6917.849,95.437,540.6759999999998,538.752,0.0
52618.0,STARLINK-3983,PAYLOAD,2022-08-22 04:00:00,15.08816681,0.0001338,53.2177,324.953,83.0185,317.9067,0.0031423,0.00050045,0.0,0 STARLINK-3983,1 52618U 22052W   22234.16667824  .00050045  00000-0  31423-2 0  9995,2 52618  53.2177 324.9530 0001338  83.0185 317.9067 15.08816681 15783,6917.9519999999975,95.439,540.742,538.891,0.0
52618.0,STARLINK-3983,PAYLOAD,2022-08-22 12:00:00,15.08851403,0.0001409,53.2176,323.4584,75.7014,336.8106,-0.001251,-0.00020148,0.0,0 STARLINK-3983,1 52618U 22052W   22234.50001157 -.00020148  00000-0 -12510-2 0  9993,2 52618  53.2176 323.4584 0001409  75.7014 336.8106 15.08851403  1301,6917.846,95.437,540.685,538.736,0.0
52618.0,STARLINK-3983,PAYLOAD,2022-08-22 22:00:00,15.08862543,0.000135,53.2174,321.5873,76.315,80.6946,-0.0018314,-0.00029334,0.0,0 STARLINK-3983,1 52618U 22052W   22234.91667824 -.00029334  00000-0 -18314-2 0  9991,2 52618  53.2174 321.5873 0001350  76.3150  80.6946 15.08862543  1305,6917.811,95.436,540.61,538.743,0.0
52618.0,STARLINK-3983,PAYLOAD,2022-08-23 04:00:00,15.0883159,0.0001323,53.2173,320.4641,83.0072,352.7149,0.0026253,0.00041732,0.0,0 STARLINK-3983,1 52618U 22052W   22235.16667824  .00041732  00000-0  26253-2 0  9994,2 52618  53.2173 320.4641 0001323  83.0072 352.7149 15.08831590 15933,6917.906,95.438,540.686,538.856,0.0
52618.0,STARLINK-3983,PAYLOAD,2022-08-23 12:00:00,15.08869181,0.0001365999999999,53.2172,318.9695,74.3624,12.961,-0.0030305999999999,-0.00048235,0.0,0 STARLINK-3983,1 52618U 22052W   22235.50001157 -.00048235  00000-0 -30306-2 0  9994,2 52618  53.2172 318.9695 0001366  74.3624  12.9610 15.08869181 15986,6917.791,95.436,540.601,538.711,0.0
52618.0,STARLINK-3983,PAYLOAD,2022-08-23 14:00:01,15.088547199999995,0.0001361,53.2173,318.5958,72.2346,107.9961,-0.0018229,-0.00029194,0.0,0 STARLINK-3983,1 52618U 22052W   22235.58334491 -.00029194  00000-0 -18229-2 0  9995,2 52618  53.2173 318.5958 0001361  72.2346 107.9961 15.08854720  1306,6917.835,95.437,540.6419999999998,538.759,0.0
52618.0,STARLINK-3983,PAYLOAD,2022-08-23 22:00:01,15.08843611,0.0001213,53.2171,317.0982,73.968,117.9261,-0.0018635,-0.00029826,0.0,0 STARLINK-3983,1 52618U 22052W   22235.91668981 -.00029826  00000-0 -18635-2 0  9999,2 52618  53.2171 317.0982 0001213  73.9680 117.9261 15.08843611  1301,6917.869000000002,95.437,540.573,538.895,0.0
52618.0,STARLINK-3983,PAYLOAD,2022-08-24 04:00:00,15.08817952,0.0001220999999999,53.2171,315.9752,80.4948,30.0311,0.0022309,0.00035374,0.0,0 STARLINK-3983,1 52618U 22052W   22236.16667824  .00035374  00000-0  22309-2 0  9998,2 52618  53.2171 315.9752 0001221  80.4948  30.0311 15.08817952 16083,6917.948,95.439,540.6569999999998,538.9680000000002,0.0
52618.0,STARLINK-3983,PAYLOAD,2022-08-24 14:00:01,15.08823437,0.0001326,53.2172,314.1069,68.1433,146.8708,0.0014726,0.00023215,0.0,0 STARLINK-3983,1 52618U 22052W   22236.58334491  .00023215  00000-0  14726-2 0  9990,2 52618  53.2172 314.1069 0001326  68.1433 146.8708 15.08823437  1304,6917.931,95.439,540.7130000000002,538.879,0.0
52618.0,STARLINK-3983,PAYLOAD,2022-08-24 20:00:01,15.08854435,0.000126,53.217,312.9839,68.1021,65.5951,-0.0016500999999999,-0.00026463,0.0,0 STARLINK-3983,1 52618U 22052W   22236.83334491 -.00026463  00000-0 -16501-2 0  9991,2 52618  53.2170 312.9839 0001260  68.1021  65.5951 15.08854435 16184,6917.8359999999975,95.437,540.573,538.83,0.0
52618.0,STARLINK-3983,PAYLOAD,2022-08-24 22:00:00,15.08852871,0.0001220999999999,53.2171,312.6093,71.311,155.2871,-0.0016659,-0.00026712,0.0,0 STARLINK-3983,1 52618U 22052W   22236.91667824 -.00026712  00000-0 -16659-2 0  9990,2 52618  53.2171 312.6093 0001221  71.3110 155.2871 15.08852871  1304,6917.840999999999,95.437,540.5509999999998,538.861,0.0
